ONEWEB-0054             
1 45158U 20008AD  24189.95063827  .00000599  00000+0  16790-2 0  9994
2 45158  87.8942 177.3093 0001973  86.7705 273.3648 13.10375474215901
ONEWEB-0056             
1 45159U 20008AE  24189.93236387 -.00000223  00000+0 -67491-3 0  9997
2 45159  87.8944 177.3088 0002173  90.5611 269.5765 13.10376343216050
ONEWEB-0057             
1 45160U 20008AF  24189.40451177  .00000266  00000+0  72704-3 0  9995
2 45160  87.8947 177.4149 0002152  86.6758 273.4615 13.10376149215397
ONEWEB-0058             
1 45161U 20008AG  24189.39135905 -.00000412  00000+0 -12161-2 0  9997
2 45161  87.8940 177.4517 0002091  82.8181 277.3184 13.10375428215461
ONEWEB-0059             
1 45162U 20008AH  24189.92239918 -.00000573  00000+0 -16769-2 0  9992
2 45162  87.8945 177.3276 0001993  82.7050 277.4304 13.10374349216177
ONEWEB-0062             
1 45163U 20008AJ  24189.94897500  .00000528  00000+0  14774-2 0  9994
2 45163  87.8943 177.3064 0001731  81.0246 279.1077 13.10375826216054
ONEWEB-0065             
1 45164U 20008AK  24189.39288416 -.00000308  00000+0 -91923-3 0  9994
2 45164  87.8951 177.4239 0002129  91.1927 268.9444 13.10375592214927
ONEWEB-0066             
1 45424U 20020A   24190.19710688 -.00000228  00000+0 -67807-3 0  9993
2 45424  87.8974 162.1684 0002438  79.4565 280.6837 13.11418665209769
ONEWEB-0067             
1 45425U 20020B   24189.92935255  .00000204  00000+0  54046-3 0  9995
2 45425  87.8957 162.1805 0002342  85.4122 274.7273 13.11414187209781
ONEWEB-0080             
1 45426U 20020C   24189.40699807 -.00000575  00000+0 -16583-2 0  9995
2 45426  87.8970 162.3277 0002086  73.5699 286.5658 13.11415646209671
ONEWEB-0090             
1 45427U 20020D   24189.42394844 -.00000487  00000+0 -14097-2 0  9991
2 45427  87.8977 162.3082 0002048  85.4909 274.6452 13.11417636209645
ONEWEB-0061             
1 45428U 20020E   24189.91383269  .00000587  00000+0  16190-2 0  9990
2 45428  87.8972 162.2087 0002104  83.1166 277.0201 13.11417371209665
ONEWEB-0081             
1 45429U 20020F   24189.43752957  .00000004  00000+0 -24915-4 0  9993
2 45429  87.8975 162.3207 0002325  83.0554 277.0838 13.11418499209713
ONEWEB-0069             
1 45430U 20020G   24189.42735164 -.00000282  00000+0 -83171-3 0  9992
2 45430  87.8975 162.3116 0002016  82.0836 278.0521 13.11418319209646
ONEWEB-0031             
1 45431U 20020H   24190.16151081  .00000153  00000+0  39662-3 0  9997
2 45431  87.8978 162.1760 0002003  85.8945 274.2412 13.11415005209726
ONEWEB-0027             
1 45432U 20020J   24189.91032471 -.00000004  00000+0 -44166-4 0  9993
2 45432  87.9178 147.0690 0001752  87.5561 272.5771 13.17651121212952
ONEWEB-0064             
1 45433U 20020K   24189.39681915  .00000305  00000+0  82401-3 0  9994
2 45433  87.8968 162.3353 0001773  79.8672 280.2655 13.11419362209658
ONEWEB-0018             
1 45434U 20020L   24189.42904580 -.00000234  00000+0 -69531-3 0  9997
2 45434  87.8973 162.3198 0002123  82.4576 277.6793 13.11418221209606
ONEWEB-0083             
1 45435U 20020M   24189.87665292 -.00000545  00000+0 -15742-2 0  9990
2 45435  87.8975 162.2126 0002019  84.4772 275.6587 13.11416891209715
ONEWEB-0095             
1 45436U 20020N   24190.17349569 -.00000357  00000+0 -10434-2 0  9996
2 45436  87.8970 162.1880 0001823 110.1264 250.0061 13.11414362209751
ONEWEB-0092             
1 45437U 20020P   24189.83512979  .00000534  00000+0  14711-2 0  9992
2 45437  87.8974 162.2372 0002083  94.6824 265.4542 13.11417002209815
ONEWEB-0085             
1 45438U 20020Q   24189.41208901 -.00000433  00000+0 -12587-2 0  9993
2 45438  87.8974 162.3281 0002161  83.5361 276.6013 13.11416591209646
ONEWEB-0096             
1 45439U 20020R   24189.42056440 -.00000481  00000+0 -13926-2 0  9995
2 45439  87.8973 162.2969 0002270  82.0335 278.1051 13.11417342209637
ONEWEB-0037             
1 45440U 20020S   24190.16489257  .00000056  00000+0  12188-3 0  9992
2 45440  87.8966 162.1327 0002075  89.6457 270.4909 13.11415010209771
ONEWEB-0042             
1 45441U 20020T   24189.41025311 -.00000265  00000+0 -78319-3 0  9998
2 45441  87.8970 162.3130 0002151  85.0102 275.1272 13.11415212209637
ONEWEB-0098             
1 45442U 20020U   24189.40361511 -.00000187  00000+0 -56472-3 0  9992
2 45442  87.8968 162.3239 0001861  79.1948 280.9390 13.11414784209610
ONEWEB-0055             
1 45443U 20020V   24189.92329093  .00000412  00000+0  11264-2 0  9997
2 45443  87.8971 162.2235 0002063  80.4264 279.7097 13.11414602209665
ONEWEB-0093             
1 45444U 20020W   24189.82240454  .00000131  00000+0  33498-3 0  9992
2 45444  87.8975 162.2250 0002243  78.7489 281.3890 13.11418055209718
ONEWEB-0029             
1 45445U 20020X   24189.91735913  .00000524  00000+0  14422-2 0  9993
2 45445  87.8973 162.2198 0002299  84.6254 275.5136 13.11416992209700
ONEWEB-0068             
1 45446U 20020Y   24190.19795187 -.00000111  00000+0 -34892-3 0  9993
2 45446  87.8974 162.1496 0002243  82.6742 277.4641 13.11419132209689
ONEWEB-0046             
1 45447U 20020Z   24190.19539858 -.00000229  00000+0 -68277-3 0  9999
2 45447  87.8974 162.1623 0002254  92.0037 268.1349 13.11416862209696
