OBJECT_NAME,OBJECT_ID,EPOCH,MEAN_MOTION,ECCENTRICITY,INCLINATION,RA_OF_ASC_NODE,ARG_OF_PERICENTER,MEAN_ANOMALY,EPHEMERIS_TYPE,CLASSIFICATION_TYPE,NORAD_CAT_ID,ELEMENT_SET_NO,REV_AT_EPOCH,BSTAR,MEAN_MOTION_DOT,MEAN_MOTION_DDOT
ONEWEB-0054,2020-008AD,2024-07-07T22:48:55.146528,13.10375474,.0001973,87.8942,177.3093,86.7705,273.3648,0,U,45158,999,21590,.1679E-2,.599E-5,0
ONEWEB-0056,2020-008AE,2024-07-07T22:22:36.238368,13.10376343,.0002173,87.8944,177.3088,90.5611,269.5765,0,U,45159,999,21605,-.67491E-3,-.223E-5,0
ONEWEB-0057,2020-008AF,2024-07-07T09:42:29.816928,13.10376149,.0002152,87.8947,177.4149,86.6758,273.4615,0,U,45160,999,21539,.72704E-3,.266E-5,0
ONEWEB-0058,2020-008AG,2024-07-07T09:23:33.421920,13.10375428,.0002091,87.8940,177.4517,82.8181,277.3184,0,U,45161,999,21546,-.12161E-2,-.412E-5,0
ONEWEB-0059,2020-008AH,2024-07-07T22:08:15.289152,13.10374349,.0001993,87.8945,177.3276,82.7050,277.4304,0,U,45162,999,21617,-.16769E-2,-.573E-5,0
ONEWEB-0062,2020-008AJ,2024-07-07T22:46:31.440000,13.10375826,.0001731,87.8943,177.3064,81.0246,279.1077,0,U,45163,999,21605,.14774E-2,.528E-5,0
ONEWEB-0065,2020-008AK,2024-07-07T09:25:45.191424,13.10375592,.0002129,87.8951,177.4239,91.1927,268.9444,0,U,45164,999,21492,-.91923E-3,-.308E-5,0
ONEWEB-0066,2020-020A,2024-07-08T04:43:50.034432,13.11418665,.0002438,87.8974,162.1684,79.4565,280.6837,0,U,45424,999,20976,-.67807E-3,-.228E-5,0
ONEWEB-0067,2020-020B,2024-07-07T22:18:16.060320,13.11414187,.0002342,87.8957,162.1805,85.4122,274.7273,0,U,45425,999,20978,.54046E-3,.204E-5,0
ONEWEB-0080,2020-020C,2024-07-07T09:46:04.633248,13.11415646,.0002086,87.8970,162.3277,73.5699,286.5658,0,U,45426,999,20967,-.16583E-2,-.575E-5,0
ONEWEB-0090,2020-020D,2024-07-07T10:10:29.145216,13.11417636,.0002048,87.8977,162.3082,85.4909,274.6452,0,U,45427,999,20964,-.14097E-2,-.487E-5,0
ONEWEB-0061,2020-020E,2024-07-07T21:55:55.144416,13.11417371,.0002104,87.8972,162.2087,83.1166,277.0201,0,U,45428,999,20966,.1619E-2,.587E-5,0
ONEWEB-0081,2020-020F,2024-07-07T10:30:02.554848,13.11418499,.0002325,87.8975,162.3207,83.0554,277.0838,0,U,45429,999,20971,-.24915E-4,.4E-7,0
ONEWEB-0069,2020-020G,2024-07-07T10:15:23.181696,13.11418319,.0002016,87.8975,162.3116,82.0836,278.0521,0,U,45430,999,20964,-.83171E-3,-.282E-5,0
ONEWEB-0031,2020-020H,2024-07-08T03:52:34.533984,13.11415005,.0002003,87.8978,162.1760,85.8945,274.2412,0,U,45431,999,20972,.39662E-3,.153E-5,0
ONEWEB-0027,2020-020J,2024-07-07T21:50:52.054944,13.17651121,.0001752,87.9178,147.0690,87.5561,272.5771,0,U,45432,999,21295,-.44166E-4,-.4E-7,0
ONEWEB-0064,2020-020K,2024-07-07T09:31:25.174560,13.11419362,.0001773,87.8968,162.3353,79.8672,280.2655,0,U,45433,999,20965,.82401E-3,.305E-5,0
ONEWEB-0018,2020-020L,2024-07-07T10:17:49.557120,13.11418221,.0002123,87.8973,162.3198,82.4576,277.6793,0,U,45434,999,20960,-.69531E-3,-.234E-5,0
ONEWEB-0083,2020-020M,2024-07-07T21:02:22.812288,13.11416891,.0002019,87.8975,162.2126,84.4772,275.6587,0,U,45435,999,20971,-.15742E-2,-.545E-5,0
ONEWEB-0095,2020-020N,2024-07-08T04:09:50.027616,13.11414362,.0001823,87.8970,162.1880,110.1264,250.0061,0,U,45436,999,20975,-.10434E-2,-.357E-5,0
ONEWEB-0092,2020-020P,2024-07-07T20:02:35.213856,13.11417002,.0002083,87.8974,162.2372,94.6824,265.4542,0,U,45437,999,20981,.14711E-2,.534E-5,0
ONEWEB-0085,2020-020Q,2024-07-07T09:53:24.490464,13.11416591,.0002161,87.8974,162.3281,83.5361,276.6013,0,U,45438,999,20964,-.12587E-2,-.433E-5,0
ONEWEB-0096,2020-020R,2024-07-07T10:05:36.764160,13.11417342,.000227,87.8973,162.2969,82.0335,278.1051,0,U,45439,999,20963,-.13926E-2,-.481E-5,0
ONEWEB-0037,2020-020S,2024-07-08T03:57:26.718048,13.11415010,.0002075,87.8966,162.1327,89.6457,270.4909,0,U,45440,999,20977,.12188E-3,.56E-6,0
ONEWEB-0042,2020-020T,2024-07-07T09:50:45.868704,13.11415212,.0002151,87.8970,162.3130,85.0102,275.1272,0,U,45441,999,20963,-.78319E-3,-.265E-5,0
ONEWEB-0098,2020-020U,2024-07-07T09:41:12.345504,13.11414784,.0001861,87.8968,162.3239,79.1948,280.9390,0,U,45442,999,20961,-.56472E-3,-.187E-5,0
ONEWEB-0055,2020-020V,2024-07-07T22:09:32.336352,13.11414602,.0002063,87.8971,162.2235,80.4264,279.7097,0,U,45443,999,20966,.11264E-2,.412E-5,0
ONEWEB-0093,2020-020W,2024-07-07T19:44:15.752256,13.11418055,.0002243,87.8975,162.2250,78.7489,281.3890,0,U,45444,999,20971,.33498E-3,.131E-5,0
ONEWEB-0029,2020-020X,2024-07-07T22:00:59.828832,13.11416992,.0002299,87.8973,162.2198,84.6254,275.5136,0,U,45445,999,20970,.14422E-2,.524E-5,0
ONEWEB-0068,2020-020Y,2024-07-08T04:45:03.041568,13.11419132,.0002243,87.8974,162.1496,82.6742,277.4641,0,U,45446,999,20968,-.34892E-3,-.111E-5,0
ONEWEB-0046,2020-020Z,2024-07-08T04:41:22.437312,13.11416862,.0002254,87.8974,162.1623,92.0037,268.1349,0,U,45447,999,20969,-.68277E-3,-.229E-5,0
